48242,ONEWEB-0207,2021,109.55,148.0,+,87.9,Active,1,LEO,Russia,UK,Commercial,Communications,Soyuz,1 48242U 21031AJ  24364.37464372  .00000053  00000+0  10860-3 0  9997,2 48242  87.8992  36.0346 0002033  95.5703 264.5659 13.14504329178032,13.14504329,0.0002033,LEO
48243,ONEWEB-0208,2021,109.55,148.0,+,87.9,Active,1,LEO,Russia,UK,Commercial,Communications,Soyuz,1 48243U 21031AK  24364.35640478 -.00000165  00000+0 -47965-3 0  9991,2 48243  87.8992  36.0524 0001837 101.4384 258.6952 13.14504047178042,13.14504047,0.0001837,LEO
48244,ONEWEB-0200,2021,109.55,148.0,+,87.9,Active,1,LEO,Russia,UK,Commercial,Communications,Soyuz,1 48244U 21031AL  24364.39603543  .00000255  00000+0  65274-3 0  9999,2 48244  87.8991  36.0393 0001782 103.0980 257.0348 13.14505449177975,13.14505449,0.0001782,LEO
48245,ONEWEB-0217,2021,109.54,148.0,+,87.9,Active,1,LEO,Russia,UK,Commercial,Communications,Soyuz,1 48245U 21031AM  24364.33578802  .00000035  00000+0  60892-4 0  9991,2 48245  87.8992  36.0359 0001754 106.8552 253.2770 13.14504414177916,13.14504414,0.0001754,LEO
48767,ONEWEB-0211,2021,109.46,148.0,+,87.91,Active,1,LEO,Russia,UK,Commercial,Communications,Soyuz,1 48767U 21045A   24364.25989994 -.00000036  00000+0 -13071-3 0  9993,2 48767  87.9061   5.6749 0001559  92.4177 267.7131 13.15548114174086,13.15548114,0.0001559,LEO
48768,ONEWEB-0223,2021,109.46,148.0,+,87.91,Active,1,LEO,Russia,UK,Commercial,Communications,Soyuz,1 48768U 21045B   24364.73841490 -.00000016  00000+0 -76721-4 0  9995,2 48768  87.9061   5.5932 0001241  94.0167 266.1105 13.15546684175271,13.15546684,0.0001241,LEO
48769,ONEWEB-0230,2021,109.46,148.0,+,87.91,Active,1,LEO,Russia,UK,Commercial,Communications,Soyuz,1 48769U 21045C   24364.70988154  .00000104  00000+0  24111-3 0  9993,2 48769  87.9065   5.6674 0001688  84.9928 275.1395 13.15551164175504,13.15551164,0.0001688,LEO
48770,ONEWEB-0237,2021,109.46,148.0,+,87.91,Active,1,LEO,Russia,UK,Commercial,Communications,Soyuz,1 48770U 21045D   24364.47061831  .00000205  00000+0  50926-3 0  9998,2 48770  87.9069   5.6578 0001344  91.2211 268.9074 13.15550992174082,13.15550992,0.0001344,LEO
